     3.00           N: GNSS NAV DATA    M: Mixed            RINEX VERSION / TYPE
RTKCONV demo5 b34f.1                    20231229 152051 UTC PGM / RUN BY / DATE 
format: u-blox UBX                                          COMMENT             
log: C:\Users\oo\Desktop\divers\verniquet\Reseau\micro\reseaCOMMENT             
                                                            END OF HEADER       
E10 2023 12 29 13 10 00 -.590046867728D-03 -.288480350719D-11  .000000000000D+00
      .310000000000D+02  .135843750000D+03  .269296931584D-08 -.217062438953D+01
      .622123479843D-05  .112475245260D-03 -.372529029846D-06  .544060579872D+04
      .479400000000D+06  .260770320892D-07 -.150504526599D+01 -.540167093277D-07
      .999549436480D+00  .366156250000D+03 -.252887315779D+01 -.572702426783D-08
      .261439461432D-09  .513000000000D+03  .229400000000D+04  .000000000000D+00
      .312000000000D+01  .000000000000D+00 -.698491930962D-09  .000000000000D+00
      .480835000000D+06  .000000000000D+00
E36 2023 12 29 12 40 00 -.164397875778D-03 -.525801624462D-11  .000000000000D+00
      .280000000000D+02  .120000000000D+03  .260546567096D-08  .130438156217D+01
      .562332570553D-05  .327745918185D-03  .264495611191D-06  .544060627174D+04
      .477600000000D+06 -.353902578354D-07 -.150318167366D+01 -.372529029846D-07
      .999692879987D+00  .350843750000D+03 -.112215810458D+01 -.566845039943D-08
      .251439044874D-09  .513000000000D+03  .229400000000D+04  .000000000000D+00
      .312000000000D+01  .000000000000D+00  .488944351673D-08  .582076609135D-08
      .481285000000D+06  .000000000000D+00
E07 2023 12 29 13 30 00 -.955884461291D-04 -.204636307899D-11  .000000000000D+00
      .330000000000D+02 -.972187500000D+02  .293905099470D-08  .247338467504D+01
     -.447779893875D-05  .811143545434D-04  .111628323793D-04  .544061585999D+04
      .480600000000D+06  .745058059692D-08  .590752067766D+00 -.186264514923D-08
      .960415443055D+00  .100843750000D+03 -.979642550502D-01 -.528522015063D-08
      .388944772540D-09  .513000000000D+03  .229400000000D+04  .000000000000D+00
      .312000000000D+01  .000000000000D+00  .582076609135D-08  .628642737865D-08
      .481285000000D+06  .000000000000D+00
E30 2023 12 29 13 30 00 -.781190814450D-03 -.308659764414D-10  .000000000000D+00
      .330000000000D+02 -.125625000000D+02  .331156651147D-08  .228867814955D+00
     -.566244125366D-06  .532074365765D-03  .723078846931D-05  .544061853218D+04
      .480600000000D+06  .204890966415D-07  .269311822993D+01  .149011611938D-07
      .965232937620D+00  .186187500000D+03  .836450788870D+00 -.549630037154D-08
     -.600739308918D-09  .513000000000D+03  .229400000000D+04  .000000000000D+00
      .312000000000D+01  .000000000000D+00  .209547579288D-08  .209547579288D-08
      .481285000000D+06  .000000000000D+00
E27 2023 12 29 13 30 00 -.236118386965D-03 -.945021838561D-11  .000000000000D+00
      .330000000000D+02 -.112500000000D+02  .328513683914D-08 -.987210035546D-02
     -.508502125740D-06  .302155502141D-03  .714510679245D-05  .544061099052D+04
      .480600000000D+06 -.204890966415D-07  .268990405262D+01 -.465661287308D-07
      .967371823331D+00  .186500000000D+03  .279349283562D+00 -.548844290139D-08
     -.643955394756D-09  .513000000000D+03  .229400000000D+04  .000000000000D+00
      .312000000000D+01  .000000000000D+00  .279396772385D-08  .302679836750D-08
      .481285000000D+06  .000000000000D+00
E36 2023 12 29 13 30 00 -.164413591847D-03 -.524380538991D-11  .000000000000D+00
      .330000000000D+02  .130593750000D+03  .257475010582D-08  .167250042073D+01
      .611320137978D-05  .327059766278D-03  .437721610069D-06  .544060911369D+04
      .480600000000D+06 -.223517417908D-07 -.150319871227D+01 -.428408384323D-07
      .999693589502D+00  .347187500000D+03 -.111834949977D+01 -.567452208091D-08
      .258225041824D-09  .513000000000D+03  .229400000000D+04  .000000000000D+00
      .312000000000D+01  .000000000000D+00  .488944351673D-08  .582076609135D-08
      .481435000000D+06  .000000000000D+00
E14 2023 12 29 13 30 00 -.460888259113D-05  .107718278741D-10  .000000000000D+00
      .330000000000D+02  .805625000000D+02  .554165940379D-08 -.144369544542D+01
      .297650694847D-05  .160879285540D+00  .123810023069D-04  .528935018921D+04
      .480600000000D+06 -.399909913540D-05 -.249972278004D+01 -.201351940632D-05
      .870239790192D+00  .127062500000D+03  .253906001374D+01 -.847106713966D-08
      .696457581682D-10  .513000000000D+03  .229400000000D+04  .000000000000D+00
      .312000000000D+01  .130000000000D+03 -.279396772385D-08 -.349245965481D-08
      .481435000000D+06  .000000000000D+00
G06 2023 12 29 14 00 00  .462649390101D-03 -.123918653117D-10  .000000000000D+00
      .120000000000D+02  .738750000000D+02  .388194741298D-08  .143781398517D+01
      .386312603951D-05  .307776278351D-02  .215508043766D-05  .515353629303D+04
      .482400000000D+06  .298023223877D-07 -.149598429373D+01 -.242143869400D-07
      .989421144059D+00  .349468750000D+03 -.830087896904D+00 -.799533303771D-08
      .200365488884D-09  .100000000000D+01  .229400000000D+04  .000000000000D+00
      .200000000000D+01  .000000000000D+00  .372529029846D-08  .120000000000D+02
      .481596000000D+06  .400000000000D+01
G28 2023 12 29 14 00 00 -.833021476865D-04 -.106865627458D-10  .000000000000D+00
      .213000000000D+03  .125937500000D+02  .484913055718D-08 -.947779589087D+00
      .718981027603D-06  .752374413423D-03  .637024641037D-05  .515355214310D+04
      .482400000000D+06 -.316649675369D-07  .159981685301D+01 -.111758708954D-07
      .960906135038D+00  .254968750000D+03  .169531348710D+01 -.804140638542D-08
      .351443210449D-09  .100000000000D+01  .229400000000D+04  .000000000000D+00
      .200000000000D+01  .000000000000D+00 -.931322574615D-08  .725000000000D+03
      .481626000000D+06  .400000000000D+01
G29 2023 12 29 14 00 00 -.609331764281D-03  .341060513165D-12  .000000000000D+00
      .260000000000D+02  .983750000000D+02  .389944814195D-08 -.293755977044D+01
      .506453216076D-05  .252345460467D-02  .935234129429D-05  .515367281914D+04
      .482400000000D+06  .186264514923D-07 -.247964198382D+01  .353902578354D-07
      .973807135593D+00  .207750000000D+03  .253930754387D+01 -.762246036321D-08
     -.139291516336D-09  .100000000000D+01  .229400000000D+04  .000000000000D+00
      .200000000000D+01  .000000000000D+00 -.102445483208D-07  .260000000000D+02
      .481746000000D+06  .400000000000D+01
E07 2023 12 29 13 40 00 -.955897266977D-04 -.204636307899D-11  .000000000000D+00
      .340000000000D+02 -.978125000000D+02  .293047920908D-08  .254764433950D+01
     -.450201332569D-05  .808326294646D-04  .110715627670D-04  .544061642075D+04
      .481200000000D+06  .558793544769D-08  .590748902012D+00 -.186264514923D-08
      .960415671271D+00  .103031250000D+03 -.978385596659D-01 -.528593446610D-08
      .388944772540D-09  .513000000000D+03  .229400000000D+04  .000000000000D+00
      .312000000000D+01  .000000000000D+00  .582076609135D-08  .628642737865D-08
      .481885000000D+06  .000000000000D+00
E14 2023 12 29 13 40 00 -.460247974843D-05  .107718278741D-10  .000000000000D+00
      .340000000000D+02  .611875000000D+02  .580274170748D-08 -.136276531047D+01
      .194832682610D-05  .160878489958D+00  .116433948278D-04  .528934269524D+04
      .481200000000D+06 -.338070094585D-05 -.249972926954D+01 -.254623591900D-05
      .870239497608D+00  .138531250000D+03  .253908247539D+01 -.880893835621D-08
      .270725562521D-09  .513000000000D+03  .229400000000D+04  .000000000000D+00
      .312000000000D+01  .130000000000D+03 -.279396772385D-08 -.349245965481D-08
      .481885000000D+06  .000000000000D+00
E30 2023 12 29 13 40 00 -.781209266279D-03 -.308659764414D-10  .000000000000D+00
      .340000000000D+02 -.124687500000D+02  .331335230014D-08  .303327287690D+00
     -.560656189919D-06  .532040372491D-03  .721588730812D-05  .544061842728D+04
      .481200000000D+06  .186264514923D-07  .269311490764D+01  .204890966415D-07
      .965232561651D+00  .186593750000D+03  .836376554555D+00 -.549558605608D-08
     -.597167731576D-09  .513000000000D+03  .229400000000D+04  .000000000000D+00
      .312000000000D+01  .000000000000D+00  .209547579288D-08  .209547579288D-08
      .481885000000D+06  .000000000000D+00
E27 2023 12 29 13 40 00 -.236123974901D-03 -.943600753089D-11  .000000000000D+00
      .340000000000D+02 -.114375000000D+02  .329192283609D-08  .645568105589D-01
     -.502914190292D-06  .302136875689D-03  .714696943760D-05  .544061094856D+04
      .481200000000D+06 -.931322574615D-08  .268990074203D+01 -.521540641785D-07
      .967371391770D+00  .186562500000D+03  .279305908041D+00 -.549380026740D-08
     -.638598028743D-09  .513000000000D+03  .229400000000D+04  .000000000000D+00
      .312000000000D+01  .000000000000D+00  .279396772385D-08  .302679836750D-08
      .481885000000D+06  .000000000000D+00
